[{"OBJECT_NAME":"STARLINK-32939","OBJECT_ID":"2025-043T","EPOCH":"2026-02-05T17:01:16.692672","MEAN_MOTION":15.27607574,"ECCENTRICITY":0.0002114,"INCLINATION":43.0018,"RA_OF_ASC_NODE":196.6459,"ARG_OF_PERICENTER":275.8747,"MEAN_ANOMALY":84.1863,"EPHEMERIS_TYPE":0,"CLASSIFICATION_TYPE":"U","NORAD_CAT_ID":63149,"ELEMENT_SET_NO":999,"REV_AT_EPOCH":5247,"BSTAR":0.0016526,"MEAN_MOTION_DOT":0.00045535,"MEAN_MOTION_DDOT":0},{"OBJECT_NAME":"STARLINK-32919","OBJECT_ID":"2025-043U","EPOCH":"2026-02-05T20:29:56.067360","MEAN_MOTION":15.27618957,"ECCENTRICITY":0.0001629,"INCLINATION":42.9998,"RA_OF_ASC_NODE":196.0054,"ARG_OF_PERICENTER":275.5573,"MEAN_ANOMALY":84.5092,"EPHEMERIS_TYPE":0,"CLASSIFICATION_TYPE":"U","NORAD_CAT_ID":63150,"ELEMENT_SET_NO":999,"REV_AT_EPOCH":5249,"BSTAR":0.0011199,"MEAN_MOTION_DOT":0.0003072,"MEAN_MOTION_DDOT":0},{"OBJECT_NAME":"STARLINK-32876","OBJECT_ID":"2025-043V","EPOCH":"2026-02-05T11:51:03.347136","MEAN_MOTION":15.27634479,"ECCENTRICITY":0.00023011,"INCLINATION":43.0023,"RA_OF_ASC_NODE":197.601,"ARG_OF_PERICENTER":296.4252,"MEAN_ANOMALY":63.6363,"EPHEMERIS_TYPE":0,"CLASSIFICATION_TYPE":"U","NORAD_CAT_ID":63151,"ELEMENT_SET_NO":999,"REV_AT_EPOCH":5244,"BSTAR":0.0019406158,"MEAN_MOTION_DOT":0.00053619,"MEAN_MOTION_DDOT":0},{"OBJECT_NAME":"STARLINK-32915","OBJECT_ID":"2025-043W","EPOCH":"2026-02-05T20:24:50.073120","MEAN_MOTION":15.27605907,"ECCENTRICITY":0.0002674,"INCLINATION":43.003,"RA_OF_ASC_NODE":202.8651,"ARG_OF_PERICENTER":287.2396,"MEAN_ANOMALY":72.8163,"EPHEMERIS_TYPE":0,"CLASSIFICATION_TYPE":"U","NORAD_CAT_ID":63152,"ELEMENT_SET_NO":999,"REV_AT_EPOCH":5241,"BSTAR":0.0012508,"MEAN_MOTION_DOT":0.00034348,"MEAN_MOTION_DDOT":0},{"OBJECT_NAME":"STARLINK-11602 [DTC]","OBJECT_ID":"2025-048A","EPOCH":"2026-02-05T17:53:16.867968","MEAN_MOTION":15.70895814,"ECCENTRICITY":0.00025163,"INCLINATION":43.0017,"RA_OF_ASC_NODE":152.7672,"ARG_OF_PERICENTER":305.224,"MEAN_ANOMALY":54.8392,"EPHEMERIS_TYPE":0,"CLASSIFICATION_TYPE":"U","NORAD_CAT_ID":63183,"ELEMENT_SET_NO":999,"REV_AT_EPOCH":5311,"BSTAR":0.0026167421,"MEAN_MOTION_DOT":0.00350698,"MEAN_MOTION_DDOT":0},{"OBJECT_NAME":"STARLINK-11617 [DTC]","OBJECT_ID":"2025-048B","EPOCH":"2026-02-06T07:29:41.565696","MEAN_MOTION":15.70946557,"ECCENTRICITY":0.00066056,"INCLINATION":42.999,"RA_OF_ASC_NODE":149.2737,"ARG_OF_PERICENTER":299.4706,"MEAN_ANOMALY":60.5502,"EPHEMERIS_TYPE":0,"CLASSIFICATION_TYPE":"U","NORAD_CAT_ID":63184,"ELEMENT_SET_NO":999,"REV_AT_EPOCH":5358,"BSTAR":0.0018026858,"MEAN_MOTION_DOT":0.00238893,"MEAN_MOTION_DDOT":0},{"OBJECT_NAME":"STARLINK-11618 [DTC]","OBJECT_ID":"2025-048C","EPOCH":"2026-02-06T00:00:02.000160","MEAN_MOTION":15.70843826,"ECCENTRICITY":0.00016429,"INCLINATION":42.9998,"RA_OF_ASC_NODE":150.7042,"ARG_OF_PERICENTER":263.3235,"MEAN_ANOMALY":309.1512,"EPHEMERIS_TYPE":0,"CLASSIFICATION_TYPE":"U","NORAD_CAT_ID":63185,"ELEMENT_SET_NO":999,"REV_AT_EPOCH":594,"BSTAR":-0.0004882105,"MEAN_MOTION_DOT":-0.00062634,"MEAN_MOTION_DDOT":0},{"OBJECT_NAME":"STARLINK-11646 [DTC]","OBJECT_ID":"2025-048D","EPOCH":"2026-02-05T10:38:13.566048","MEAN_MOTION":15.7103118,"ECCENTRICITY":0.00022177,"INCLINATION":42.9995,"RA_OF_ASC_NODE":153.9098,"ARG_OF_PERICENTER":262.263,"MEAN_ANOMALY":97.7986,"EPHEMERIS_TYPE":0,"CLASSIFICATION_TYPE":"U","NORAD_CAT_ID":63186,"ELEMENT_SET_NO":999,"REV_AT_EPOCH":5345,"BSTAR":0.0022459145,"MEAN_MOTION_DOT":0.00300817,"MEAN_MOTION_DDOT":0},{"OBJECT_NAME":"STARLINK-11622 [DTC]","OBJECT_ID":"2025-048E","EPOCH":"2026-02-05T14:57:48.076704","MEAN_MOTION":15.70866979,"ECCENTRICITY":8.96e-5,"INCLINATION":43.0007,"RA_OF_ASC_NODE":153.5748,"ARG_OF_PERICENTER":259.8206,"MEAN_ANOMALY":100.256,"EPHEMERIS_TYPE":0,"CLASSIFICATION_TYPE":"U","NORAD_CAT_ID":63187,"ELEMENT_SET_NO":999,"REV_AT_EPOCH":5347,"BSTAR":0.0014591,"MEAN_MOTION_DOT":0.00191365,"MEAN_MOTION_DDOT":0},{"OBJECT_NAME":"STARLINK-11642 [DTC]","OBJECT_ID":"2025-048F","EPOCH":"2026-02-05T17:30:19.882656","MEAN_MOTION":15.70944555,"ECCENTRICITY":0.0003352,"INCLINATION":43.0007,"RA_OF_ASC_NODE":152.6345,"ARG_OF_PERICENTER":275.37,"MEAN_ANOMALY":84.6785,"EPHEMERIS_TYPE":0,"CLASSIFICATION_TYPE":"U","NORAD_CAT_ID":63188,"ELEMENT_SET_NO":999,"REV_AT_EPOCH":5349,"BSTAR":0.0018434497,"MEAN_MOTION_DOT":0.00244271,"MEAN_MOTION_DDOT":0},{"OBJECT_NAME":"STARLINK-11639 [DTC]","OBJECT_ID":"2025-048G","EPOCH":"2026-02-05T18:46:36.674688","MEAN_MOTION":15.70839734,"ECCENTRICITY":0.00028135,"INCLINATION":43.0014,"RA_OF_ASC_NODE":152.1654,"ARG_OF_PERICENTER":328.1087,"MEAN_ANOMALY":31.961,"EPHEMERIS_TYPE":0,"CLASSIFICATION_TYPE":"U","NORAD_CAT_ID":63189,"ELEMENT_SET_NO":999,"REV_AT_EPOCH":5350,"BSTAR":0.0022145414,"MEAN_MOTION_DOT":0.00293998,"MEAN_MOTION_DDOT":0},{"OBJECT_NAME":"STARLINK-11637 [DTC]","OBJECT_ID":"2025-048H","EPOCH":"2026-02-06T07:46:17.743008","MEAN_MOTION":15.7095529,"ECCENTRICITY":0.00015093,"INCLINATION":42.9962,"RA_OF_ASC_NODE":149.3598,"ARG_OF_PERICENTER":199.3423,"MEAN_ANOMALY":160.7387,"EPHEMERIS_TYPE":0,"CLASSIFICATION_TYPE":"U","NORAD_CAT_ID":63190,"ELEMENT_SET_NO":999,"REV_AT_EPOCH":5358,"BSTAR":0.0020702531,"MEAN_MOTION_DOT":0.00275521,"MEAN_MOTION_DDOT":0},{"OBJECT_NAME":"STARLINK-11647 [DTC]","OBJECT_ID":"2025-048J","EPOCH":"2026-02-05T14:04:16.613760","MEAN_MOTION":15.70916517,"ECCENTRICITY":0.0001817,"INCLINATION":42.9998,"RA_OF_ASC_NODE":153.2687,"ARG_OF_PERICENTER":290.4306,"MEAN_ANOMALY":69.6367,"EPHEMERIS_TYPE":0,"CLASSIFICATION_TYPE":"U","NORAD_CAT_ID":63191,"ELEMENT_SET_NO":999,"REV_AT_EPOCH":5347,"BSTAR":0.00084306,"MEAN_MOTION_DOT":0.00109517,"MEAN_MOTION_DDOT":0},{"OBJECT_NAME":"STARLINK-11643 [DTC]","OBJECT_ID":"2025-048K","EPOCH":"2026-02-06T07:06:45.290592","MEAN_MOTION":15.70940161,"ECCENTRICITY":0.00019462,"INCLINATION":42.9936,"RA_OF_ASC_NODE":149.1373,"ARG_OF_PERICENTER":106.9151,"MEAN_ANOMALY":253.193,"EPHEMERIS_TYPE":0,"CLASSIFICATION_TYPE":"U","NORAD_CAT_ID":63192,"ELEMENT_SET_NO":999,"REV_AT_EPOCH":5358,"BSTAR":0.0018407527,"MEAN_MOTION_DOT":0.00243832,"MEAN_MOTION_DDOT":0},{"OBJECT_NAME":"STARLINK-11635 [DTC]","OBJECT_ID":"2025-048L","EPOCH":"2026-02-06T06:36:10.356768","MEAN_MOTION":15.70909903,"ECCENTRICITY":0.00017034,"INCLINATION":42.9987,"RA_OF_ASC_NODE":148.967,"ARG_OF_PERICENTER":229.7985,"MEAN_ANOMALY":130.2734,"EPHEMERIS_TYPE":0,"CLASSIFICATION_TYPE":"U","NORAD_CAT_ID":63193,"ELEMENT_SET_NO":999,"REV_AT_EPOCH":5358,"BSTAR":0.0017783109,"MEAN_MOTION_DOT":0.00234991,"MEAN_MOTION_DDOT":0},{"OBJECT_NAME":"STARLINK-11636 [DTC]","OBJECT_ID":"2025-048M","EPOCH":"2026-02-05T17:37:58.181088","MEAN_MOTION":15.70953718,"ECCENTRICITY":0.0004021,"INCLINATION":43.0014,"RA_OF_ASC_NODE":152.675,"ARG_OF_PERICENTER":287.0422,"MEAN_ANOMALY":73.0005,"EPHEMERIS_TYPE":0,"CLASSIFICATION_TYPE":"U","NORAD_CAT_ID":63194,"ELEMENT_SET_NO":999,"REV_AT_EPOCH":5349,"BSTAR":0.001576628,"MEAN_MOTION_DOT":0.00208037,"MEAN_MOTION_DDOT":0}]
