STARLINK-32939          
1 63149U 25043T   26036.70922098  .00045535  00000+0  16526-2 0  9994
2 63149  43.0018 196.6459 0002114 275.8747  84.1863 15.27607574 52471
STARLINK-32919          
1 63150U 25043U   26036.85412115  .00030720  00000+0  11199-2 0  9997
2 63150  42.9998 196.0054 0001629 275.5573  84.5092 15.27618957 52494
STARLINK-32876          
1 63151U 25043V   26036.49378874  .00053619  00000+0  19406-2 0  9992
2 63151  43.0023 197.6010 0002301 296.4252  63.6363 15.27634479 52440
STARLINK-32915          
1 63152U 25043W   26036.85057955  .00034348  00000+0  12508-2 0  9991
2 63152  43.0030 202.8651 0002674 287.2396  72.8163 15.27605907 52410
STARLINK-11602 [DTC]    
1 63183U 25048A   26036.74533412  .00350698  00000+0  26167-2 0  9990
2 63183  43.0017 152.7672 0002516 305.2240  54.8392 15.70895814 53117
STARLINK-11617 [DTC]    
1 63184U 25048B   26037.31228664  .00238893  00000+0  18027-2 0  9993
2 63184  42.9990 149.2737 0006605 299.4706  60.5502 15.70946557 53582
STARLINK-11618 [DTC]    
1 63185U 25048C   26037.00002315 -.00062634  00000+0 -48821-3 0  9999
2 63185  42.9998 150.7042 0001642 263.3235 309.1512 15.70843826  5945
STARLINK-11646 [DTC]    
1 63186U 25048D   26036.44321257  .00300817  00000+0  22459-2 0  9990
2 63186  42.9995 153.9098 0002217 262.2630  97.7986 15.71031180 53452
STARLINK-11622 [DTC]    
1 63187U 25048E   26036.62347311  .00191365  00000+0  14591-2 0  9994
2 63187  43.0007 153.5748 0000896 259.8206 100.2560 15.70866979 53470
STARLINK-11642 [DTC]    
1 63188U 25048F   26036.72939679  .00244271  00000+0  18434-2 0  9995
2 63188  43.0007 152.6345 0003352 275.3700  84.6785 15.70944555 53499
STARLINK-11639 [DTC]    
1 63189U 25048G   26036.78236892  .00293998  00000+0  22145-2 0  9993
2 63189  43.0014 152.1654 0002813 328.1087  31.9610 15.70839734 53508
STARLINK-11637 [DTC]    
1 63190U 25048H   26037.32381647  .00275521  00000+0  20703-2 0  9995
2 63190  42.9962 149.3598 0001509 199.3423 160.7387 15.70955290 53584
STARLINK-11647 [DTC]    
1 63191U 25048J   26036.58630340  .00109517  00000+0  84306-3 0  9991
2 63191  42.9998 153.2687 0001817 290.4306  69.6367 15.70916517 53474
STARLINK-11643 [DTC]    
1 63192U 25048K   26037.29635753  .00243832  00000+0  18408-2 0  9992
2 63192  42.9936 149.1373 0001946 106.9151 253.1930 15.70940161 53585
STARLINK-11635 [DTC]    
1 63193U 25048L   26037.27511987  .00234991  00000+0  17783-2 0  9994
2 63193  42.9987 148.9670 0001703 229.7985 130.2734 15.70909903 53585
STARLINK-11636 [DTC]    
1 63194U 25048M   26036.73470117  .00208037  00000+0  15766-2 0  9995
2 63194  43.0014 152.6750 0004021 287.0422  73.0005 15.70953718 53497
